NORAD_CAT_ID,OBJECT_NAME,OBJECT_TYPE,EPOCH,MEAN_MOTION,ECCENTRICITY,INCLINATION,RA_OF_ASC_NODE,ARG_OF_PERICENTER,MEAN_ANOMALY,BSTAR,MEAN_MOTION_DOT,MEAN_MOTION_DDOT,TLE_LINE0,TLE_LINE1,TLE_LINE2,SEMIMAJOR_AXIS,PERIOD,APOGEE,PERIGEE,DECAYED
53290.0,STARLINK-4149,PAYLOAD,2023-03-05 01:50:14,15.08834687,0.000155,53.2178,84.9656,100.8392,259.2775,0.0017845,0.00028222,0.0,0 STARLINK-4149,1 53290U 22086BA  23064.07656001  .00028222  00000-0  17845-2 0  9990,2 53290  53.2178  84.9656 0001550 100.8392 259.2775 15.08834687 34878,6917.897,95.438,540.834,538.689,0.0
53290.0,STARLINK-4149,PAYLOAD,2023-03-05 06:36:23,15.08855309,0.000146,53.2177,84.0726,108.476,251.6391,0.0015774,0.00024916,0.0,0 STARLINK-4149,1 53290U 22086BA  23064.27527691  .00024916  00000-0  15774-2 0  9999,2 53290  53.2177  84.0726 0001460 108.4760 251.6391 15.08855309 35065,6917.834,95.437,540.709,538.689,0.0
53290.0,STARLINK-4149,PAYLOAD,2023-03-05 17:44:05,15.08860829,0.0001356,53.2177,81.9942,77.8195,282.2949,0.0011102,0.00017435,0.0,0 STARLINK-4149,1 53290U 22086BA  23064.73895516  .00017435  00000-0  11102-2 0  9993,2 53290  53.2177  81.9942 0001356  77.8195 282.2949 15.08860829 34977,6917.817,95.436,540.62,538.744,0.0
53290.0,STARLINK-4149,PAYLOAD,2023-03-06 04:51:47,15.08849541,0.0001217,53.2176,79.9112,89.0713,271.0419,0.00077383,0.00012052,0.0,0 STARLINK-4149,1 53290U 22086BA  23065.20263472  .00012052  00000-0  77383-3 0  9990,2 53290  53.2176  79.9112 0001217  89.0713 271.0419 15.08849541 35044,6917.851,95.437,540.558,538.874,0.0
53290.0,STARLINK-4149,PAYLOAD,2023-03-06 17:34:53,15.08833923,0.0001514,53.2174,77.532,88.6303,271.4862,0.0003356,5.056e-05,0.0,0 STARLINK-4149,1 53290U 22086BA  23065.73255915  .00005056  00000-0  33560-3 0  9996,2 53290  53.2174  77.5320 0001514  88.6303 271.4862 15.08833923 35129,6917.899,95.438,540.811,538.717,0.0
53290.0,STARLINK-4149,PAYLOAD,2023-03-07 17:25:40,15.08849255,0.0001129,53.2172,73.0706,91.4759,268.6363,0.0010743,0.00016855,0.0,0 STARLINK-4149,1 53290U 22086BA  23066.72616137  .00016855  00000-0  10743-2 0  9999,2 53290  53.2172  73.0706 0001129  91.4759 268.6363 15.08849255 35438,6917.852,95.437,540.498,538.936,0.0
53290.0,STARLINK-4149,PAYLOAD,2023-03-08 01:22:35,15.08852036,0.0001168,53.2171,71.5843,87.1002,273.0123,0.00069802,0.00010842,0.0,0 STARLINK-4149,1 53290U 22086BA  23067.05735974  .00010842  00000-0  69802-3 0  9998,2 53290  53.2171  71.5843 0001168  87.1002 273.0123 15.08852036 35321,6917.844,95.437,540.517,538.901,0.0
53290.0,STARLINK-4149,PAYLOAD,2023-03-08 17:16:26,15.08851108,0.0001264,53.2172,68.6108,74.5822,285.531,0.00038899,5.91e-05,0.0,0 STARLINK-4149,1 53290U 22086BA  23067.71975622  .00005910  00000-0  38899-3 0  9999,2 53290  53.2172  68.6108 0001264  74.5822 285.5310 15.08851108 35426,6917.846,95.437,540.586,538.837,0.0
53290.0,STARLINK-4149,PAYLOAD,2023-03-09 17:07:13,15.08853784,8.84e-05,53.2185,64.1486,85.265,274.8444,0.00052839,8.135e-05,0.0,0 STARLINK-4149,1 53290U 22086BA  23068.71334895  .00008135  00000-0  52839-3 0  9993,2 53290  53.2185  64.1486 0000884  85.2650 274.8444 15.08853784 35572,6917.838,95.437,540.315,539.092,0.0
53290.0,STARLINK-4149,PAYLOAD,2023-03-10 05:50:18,15.08843886,0.0001367,53.2184,61.7681,98.9418,261.1729,0.00022037,3.221e-05,0.0,0 STARLINK-4149,1 53290U 22086BA  23069.24327160  .00003221  00000-0  22037-3 0  9997,2 53290  53.2184  61.7681 0001367  98.9418 261.1729 15.08843886 35657,6917.869,95.437,540.679,538.788,0.0
53290.0,STARLINK-4149,PAYLOAD,2023-03-10 16:58:01,15.08829911,0.0001617,53.2185,59.6888,75.6492,284.4679,-0.00011068,-2.049e-05,0.0,0 STARLINK-4149,1 53290U 22086BA  23069.70695944 -.00002049  00000-0 -11068-3 0  9997,2 53290  53.2185  59.6888 0001617  75.6492 284.4679 15.08829911 35728,6917.911,95.438,540.895,538.658,0.0
53290.0,STARLINK-4149,PAYLOAD,2023-03-11 10:27:16,15.08839726,0.0001609,53.22,56.4177,83.3533,276.7642,0.00076279,0.00011873,0.0,0 STARLINK-4149,1 53290U 22086BA  23070.43560542  .00011873  00000-0  76279-3 0  9992,2 53290  53.2200  56.4177 0001609  83.3533 276.7642 15.08839726 35993,6917.881,95.438,540.859,538.633,0.0
53290.0,STARLINK-4149,PAYLOAD,2023-03-12 10:18:03,15.08854467,0.000158,53.2189,51.9568,102.2391,257.8778,0.00066069,0.00010247,0.0,0 STARLINK-4149,1 53290U 22086BA  23071.42920351  .00010247  00000-0  66069-3 0  9990,2 53290  53.2189  51.9568 0001580 102.2391 257.8778 15.08854467 35982,6917.836,95.437,540.794,538.608,0.0
53290.0,STARLINK-4149,PAYLOAD,2023-03-12 23:01:08,15.08847812,0.0001895,53.2197,49.5803,111.2954,248.824,0.00028183,4.201e-05,0.0,0 STARLINK-4149,1 53290U 22086BA  23071.95912525  .00004201  00000-0  28183-3 0  9990,2 53290  53.2197  49.5803 0001895 111.2954 248.8240 15.08847812 36060,6917.857,95.437,541.032,538.411,0.0
53290.0,STARLINK-4149,PAYLOAD,2023-03-13 10:08:49,15.08859879,0.0001548,53.2182,47.4996,94.6888,265.428,0.00067492,0.00010475,0.0,0 STARLINK-4149,1 53290U 22086BA  23072.42280047  .00010475  00000-0  67492-3 0  9996,2 53290  53.2182  47.4996 0001548  94.6888 265.4280 15.08859879 36299,6917.82,95.436,540.756,538.614,0.0
53290.0,STARLINK-4149,PAYLOAD,2023-03-13 22:51:55,15.08832507,0.0001196,53.2188,45.1187,106.6935,253.4188,0.00016995,2.417e-05,0.0,0 STARLINK-4149,1 53290U 22086BA  23072.95272809  .00002417  00000-0  16995-3 0  9990,2 53290  53.2188  45.1187 0001196 106.6935 253.4188 15.08832507 36370,6917.903,95.438,540.596,538.941,0.0
53290.0,STARLINK-4149,PAYLOAD,2023-03-14 03:38:04,15.08833313,0.0001739,53.2182,44.2274,126.882,233.2332,0.00056502,8.714e-05,0.0,0 STARLINK-4149,1 53290U 22086BA  23073.15144664  .00008714  00000-0  56502-3 0  9994,2 53290  53.2182  44.2274 0001739 126.8820 233.2332 15.08833313 36240,6917.901,95.438,540.969,538.563,0.0
53290.0,STARLINK-4149,PAYLOAD,2023-03-14 06:48:51,15.08843677,0.0001444,53.2183,43.6331,121.7735,238.3398,0.00062757,9.715e-05,0.0,0 STARLINK-4149,1 53290U 22086BA  23073.28392697  .00009715  00000-0  62757-3 0  9990,2 53290  53.2183  43.6331 0001444 121.7735 238.3398 15.08843677 36422,6917.869,95.437,540.733,538.735,0.0
53290.0,STARLINK-4149,PAYLOAD,2023-03-14 14:45:46,15.08853276,0.0001128,53.2181,42.1482,101.1,259.0119,0.00070744,0.00010993,0.0,0 STARLINK-4149,1 53290U 22086BA  23073.61512637  .00010993  00000-0  70744-3 0  9990,2 53290  53.2181  42.1482 0001128 101.1000 259.0119 15.08853276 36479,6917.84,95.437,540.485,538.924,0.0
53290.0,STARLINK-4149,PAYLOAD,2023-03-15 05:04:14,15.08857052,0.0001259,53.2181,39.4723,99.4532,260.6602,0.00081951,0.00012785,0.0,0 STARLINK-4149,1 53290U 22086BA  23074.21128230  .00012785  00000-0  81951-3 0  9992,2 53290  53.2181  39.4723 0001259  99.4532 260.6602 15.08857052 36404,6917.828,95.436,540.564,538.822,0.0
53290.0,STARLINK-4149,PAYLOAD,2023-03-15 09:50:23,15.0888163,0.0001283,53.2179,38.5771,100.0244,260.0893,0.0015276,0.00024135,0.0,0 STARLINK-4149,1 53290U 22086BA  23074.40999609  .00024135  00000-0  15276-2 0  9997,2 53290  53.2179  38.5771 0001283 100.0244 260.0893 15.08881630 36438,6917.753,95.435,540.506,538.731,0.0
53290.0,STARLINK-4149,PAYLOAD,2023-03-16 04:55:01,15.08848173,0.0001414,53.2162,35.012,84.5075,275.6079,0.00054654,8.423e-05,0.0,0 STARLINK-4149,1 53290U 22086BA  23075.20488253  .00008423  00000-0  54654-3 0  9990,2 53290  53.2162  35.0120 0001414  84.5075 275.6079 15.08848173 36550,6917.855,95.437,540.699,538.742,0.0
53290.0,STARLINK-4149,PAYLOAD,2023-03-16 06:30:24,15.08859422,0.0001398,53.2162,34.713,100.4812,259.6338,0.0010703,0.00016796,0.0,0 STARLINK-4149,1 53290U 22086BA  23075.27111996  .00016796  00000-0  10703-2 0  9992,2 53290  53.2162  34.7130 0001398 100.4812 259.6338 15.08859422 36565,6917.821,95.436,540.653,538.719,0.0
53290.0,STARLINK-4149,PAYLOAD,2023-03-17 06:21:13,15.08837262,0.0001232,53.2173,30.2501,75.029,285.0839,0.0012249,0.00019259,0.0,0 STARLINK-4149,1 53290U 22086BA  23076.26473414  .00019259  00000-0  12249-2 0  9992,2 53290  53.2173  30.2501 0001232  75.0290 285.0839 15.08837262 36718,6917.889,95.438,540.606,538.901,0.0
53290.0,STARLINK-4149,PAYLOAD,2023-03-17 14:18:08,15.08836241,0.0001508,53.2181,28.7637,86.5049,273.6115,0.00073469,0.00011423,0.0,0 STARLINK-4149,1 53290U 22086BA  23076.59593650  .00011423  00000-0  73469-3 0  9990,2 53290  53.2181  28.7637 0001508  86.5049 273.6115 15.08836241 36765,6917.892,95.438,540.8,538.714,0.0
53290.0,STARLINK-4149,PAYLOAD,2023-03-18 14:08:55,15.08847415,0.0001507,53.2172,24.309,52.4721,307.6408,0.00037626,5.706e-05,0.0,0 STARLINK-4149,1 53290U 22086BA  23077.58953366  .00005706  00000-0  37626-3 0  9996,2 53290  53.2172  24.3090 0001507  52.4721 307.6408 15.08847415 36913,6917.858,95.437,540.765,538.68,0.0
53290.0,STARLINK-4149,PAYLOAD,2023-03-19 02:52:00,15.08843364,0.0001136,53.2184,21.9257,88.2354,271.8768,0.00017615,2.517e-05,0.0,0 STARLINK-4149,1 53290U 22086BA  23078.11945296  .00002517  00000-0  17615-3 0  9992,2 53290  53.2184  21.9257 0001136  88.2354 271.8768 15.08843364 36999,6917.87,95.437,540.521,538.949,0.0
53290.0,STARLINK-4149,PAYLOAD,2023-03-19 20:21:15,15.08844148,0.0001061,53.2187,18.6547,91.0084,269.103,0.00018602,2.674e-05,0.0,0 STARLINK-4149,1 53290U 22086BA  23078.84809341  .00002674  00000-0  18602-3 0  9993,2 53290  53.2187  18.6547 0001061  91.0084 269.1030 15.08844148 37260,6917.868,95.437,540.467,538.999,0.0
53290.0,STARLINK-4149,PAYLOAD,2023-03-20 05:53:33,15.08859315,0.000102,53.2185,16.8712,100.7442,259.3665,0.00054788,8.447e-05,0.0,0 STARLINK-4149,1 53290U 22086BA  23079.24552773  .00008447  00000-0  54788-3 0  9991,2 53290  53.2185  16.8712 0001020 100.7442 259.3665 15.08859315 37169,6917.821,95.436,540.392,538.981,0.0
53290.0,STARLINK-4149,PAYLOAD,2023-03-21 04:08:57,15.08853129,9.57e-05,53.2177,12.7096,95.5514,264.5587,0.00043316,6.615e-05,0.0,0 STARLINK-4149,1 53290U 22086BA  23080.17288966  .00006615  00000-0  43316-3 0  9995,2 53290  53.2177  12.7096 0000957  95.5514 264.5587 15.08853129 37303,6917.84,95.437,540.367,539.043,0.0
